[{"OBJECT_NAME":"OBJECT A","OBJECT_ID":"2023-085A","EPOCH":"2026-03-09T21:42:39.504096","MEAN_MOTION":15.28003151,"ECCENTRICITY":0.00073195,"INCLINATION":97.4858,"RA_OF_ASC_NODE":178.2033,"ARG_OF_PERICENTER":32.2499,"MEAN_ANOMALY":327.9186,"EPHEMERIS_TYPE":0,"CLASSIFICATION_TYPE":"U","NORAD_CAT_ID":57004,"ELEMENT_SET_NO":999,"REV_AT_EPOCH":15139,"BSTAR":0.00063583858,"MEAN_MOTION_DOT":0.0001733,"MEAN_MOTION_DDOT":0},{"OBJECT_NAME":"STARLINK-35591","OBJECT_ID":"2025-288AB","EPOCH":"2026-03-08T21:38:15.334368","MEAN_MOTION":15.27584601,"ECCENTRICITY":0.00015964,"INCLINATION":43.0012,"RA_OF_ASC_NODE":28.1737,"ARG_OF_PERICENTER":246.0772,"MEAN_ANOMALY":113.9913,"EPHEMERIS_TYPE":0,"CLASSIFICATION_TYPE":"U","NORAD_CAT_ID":66984,"ELEMENT_SET_NO":999,"REV_AT_EPOCH":1516,"BSTAR":0.0012807805,"MEAN_MOTION_DOT":0.00035155,"MEAN_MOTION_DDOT":0}]
